{
  "type": "FeatureCollection",
  "features": [
    {
      "type": "Feature",
      "properties": {
        "norad_id": 35594,
        "name": "COSMOS 2251 DEB",
        "group": "cosmos-2251-debris",
        "lat": 12.323273753324846,
        "lon": -70.36287504113541,
        "alt_km": 594.2901659759336,
        "timestamp": "2025-12-09T09:46:48.042067+00:00",
        "meta_object_name": "COSMOS 2251 DEB",
        "meta_object_id": "1993-036AMM",
        "meta_epoch": "2025-12-08T08:49:17.013792",
        "meta_mean_motion": 14.87718138,
        "meta_eccentricity": 0.00306298,
        "meta_inclination": 73.8075,
        "meta_ra_of_asc_node": 115.3782,
        "meta_arg_of_pericenter": 226.7549,
        "meta_mean_anomaly": 133.1073,
        "meta_ephemeris_type": 0,
        "meta_classification_type": "U",
        "meta_norad_cat_id": 35594,
        "meta_element_set_no": 999,
        "meta_rev_at_epoch": 88120,
        "meta_bstar": 0.0022014494,
        "meta_mean_motion_dot": 0.00020265,
        "meta_mean_motion_ddot": 0,
        "tle_line1": "1 35594U 93036AMM 25342.36755803  .00020265  00000+0  22014-2 0  9995",
        "tle_line2": "2 35594  73.8075 115.3782 0030629 226.7549 133.1073 14.87718138881205"
      },
      "geometry": {
        "type": "Point",
        "coordinates": [
          -70.36287504113541,
          12.323273753324846
        ]
      }
    },
    {
      "type": "Feature",
      "properties": {
        "norad_id": 35602,
        "name": "COSMOS 2251 DEB",
        "group": "cosmos-2251-debris",
        "lat": 66.79517075357413,
        "lon": -128.58234666861074,
        "alt_km": 516.0264462318992,
        "timestamp": "2025-12-09T09:46:48.042078+00:00",
        "meta_object_name": "COSMOS 2251 DEB",
        "meta_object_id": "1993-036AMV",
        "meta_epoch": "2025-12-08T07:24:09.153792",
        "meta_mean_motion": 15.34851294,
        "meta_eccentricity": 0.00903072,
        "meta_inclination": 73.9934,
        "meta_ra_of_asc_node": 191.7408,
        "meta_arg_of_pericenter": 258.4764,
        "meta_mean_anomaly": 224.238,
        "meta_ephemeris_type": 0,
        "meta_classification_type": "U",
        "meta_norad_cat_id": 35602,
        "meta_element_set_no": 999,
        "meta_rev_at_epoch": 90023,
        "meta_bstar": 0.00052145663,
        "meta_mean_motion_dot": 0.00020153,
        "meta_mean_motion_ddot": 0,
        "tle_line1": "1 35602U 93036AMV 25342.30843928  .00020153  00000+0  52146-3 0  9991",
        "tle_line2": "2 35602  73.9934 191.7408 0090307 258.4764 224.2380 15.34851294900235"
      },
      "geometry": {
        "type": "Point",
        "coordinates": [
          -128.58234666861074,
          66.79517075357413
        ]
      }
    },
    {
      "type": "Feature",
      "properties": {
        "norad_id": 35605,
        "name": "COSMOS 2251 DEB",
        "group": "cosmos-2251-debris",
        "lat": 35.753878433898755,
        "lon": 151.79388046142532,
        "alt_km": 480.72381421190676,
        "timestamp": "2025-12-09T09:46:48.042089+00:00",
        "meta_object_name": "COSMOS 2251 DEB",
        "meta_object_id": "1993-036AMY",
        "meta_epoch": "2025-12-08T17:29:07.135584",
        "meta_mean_motion": 15.31836492,
        "meta_eccentricity": 0.00282066,
        "meta_inclination": 73.8723,
        "meta_ra_of_asc_node": 345.2823,
        "meta_arg_of_pericenter": 280.9051,
        "meta_mean_anomaly": 78.8978,
        "meta_ephemeris_type": 0,
        "meta_classification_type": "U",
        "meta_norad_cat_id": 35605,
        "meta_element_set_no": 999,
        "meta_rev_at_epoch": 65910,
        "meta_bstar": 0.0070125726,
        "meta_mean_motion_dot": 0.002247,
        "meta_mean_motion_ddot": 0,
        "tle_line1": "1 35605U 93036AMY 25342.72855481  .00224700  00000+0  70126-2 0  9998",
        "tle_line2": "2 35605  73.8723 345.2823 0028206 280.9051  78.8978 15.31836492659101"
      },
      "geometry": {
        "type": "Point",
        "coordinates": [
          151.79388046142532,
          35.753878433898755
        ]
      }
    },
    {
      "type": "Feature",
      "properties": {
        "norad_id": 35606,
        "name": "COSMOS 2251 DEB",
        "group": "cosmos-2251-debris",
        "lat": -33.84391118800485,
        "lon": 4.87670823507183,
        "alt_km": 1168.5930258897079,
        "timestamp": "2025-12-09T09:46:48.042100+00:00",
        "meta_object_name": "COSMOS 2251 DEB",
        "meta_object_id": "1993-036AMZ",
        "meta_epoch": "2025-12-08T08:54:08.063424",
        "meta_mean_motion": 13.41203227,
        "meta_eccentricity": 0.045776,
        "meta_inclination": 73.8108,
        "meta_ra_of_asc_node": 17.7606,
        "meta_arg_of_pericenter": 224.1264,
        "meta_mean_anomaly": 132.2461,
        "meta_ephemeris_type": 0,
        "meta_classification_type": "U",
        "meta_norad_cat_id": 35606,
        "meta_element_set_no": 999,
        "meta_rev_at_epoch": 60981,
        "meta_bstar": 0.0016476844,
        "meta_mean_motion_dot": 1.672e-05,
        "meta_mean_motion_ddot": 0,
        "tle_line1": "1 35606U 93036AMZ 25342.37092666  .00001672  00000+0  16477-2 0  9998",
        "tle_line2": "2 35606  73.8108  17.7606 0457760 224.1264 132.2461 13.41203227609814"
      },
      "geometry": {
        "type": "Point",
        "coordinates": [
          4.87670823507183,
          -33.84391118800485
        ]
      }
    },
    {
      "type": "Feature",
      "properties": {
        "norad_id": 35611,
        "name": "COSMOS 2251 DEB",
        "group": "cosmos-2251-debris",
        "lat": -49.915180762221006,
        "lon": 165.8862238101257,
        "alt_km": 648.7913039865552,
        "timestamp": "2025-12-09T09:46:48.042110+00:00",
        "meta_object_name": "COSMOS 2251 DEB",
        "meta_object_id": "1993-036ANE",
        "meta_epoch": "2025-12-07T23:46:52.346496",
        "meta_mean_motion": 14.72654945,
        "meta_eccentricity": 0.0021935,
        "meta_inclination": 74.0173,
        "meta_ra_of_asc_node": 188.5564,
        "meta_arg_of_pericenter": 261.817,
        "meta_mean_anomaly": 98.0514,
        "meta_ephemeris_type": 0,
        "meta_classification_type": "U",
        "meta_norad_cat_id": 35611,
        "meta_element_set_no": 999,
        "meta_rev_at_epoch": 87220,
        "meta_bstar": 0.0026626176,
        "meta_mean_motion_dot": 0.00017044,
        "meta_mean_motion_ddot": 0,
        "tle_line1": "1 35611U 93036ANE 25341.99088364  .00017044  00000+0  26626-2 0  9998",
        "tle_line2": "2 35611  74.0173 188.5564 0021935 261.8170  98.0514 14.72654945872205"
      },
      "geometry": {
        "type": "Point",
        "coordinates": [
          165.8862238101257,
          -49.915180762221006
        ]
      }
    },
    {
      "type": "Feature",
      "properties": {
        "norad_id": 35614,
        "name": "COSMOS 2251 DEB",
        "group": "cosmos-2251-debris",
        "lat": 42.29623299286731,
        "lon": 138.749444829261,
        "alt_km": 635.0111325656399,
        "timestamp": "2025-12-09T09:46:48.042121+00:00",
        "meta_object_name": "COSMOS 2251 DEB",
        "meta_object_id": "1993-036ANH",
        "meta_epoch": "2025-12-08T16:47:37.057344",
        "meta_mean_motion": 14.66956711,
        "meta_eccentricity": 0.00760294,
        "meta_inclination": 73.959,
        "meta_ra_of_asc_node": 335.2957,
        "meta_arg_of_pericenter": 190.7656,
        "meta_mean_anomaly": 169.189,
        "meta_ephemeris_type": 0,
        "meta_classification_type": "U",
        "meta_norad_cat_id": 35614,
        "meta_element_set_no": 999,
        "meta_rev_at_epoch": 87670,
        "meta_bstar": 0.0013359828,
        "meta_mean_motion_dot": 7.786e-05,
        "meta_mean_motion_ddot": 0,
        "tle_line1": "1 35614U 93036ANH 25342.69973446  .00007786  00000+0  13360-2 0  9996",
        "tle_line2": "2 35614  73.9590 335.2957 0076029 190.7656 169.1890 14.66956711876704"
      },
      "geometry": {
        "type": "Point",
        "coordinates": [
          138.749444829261,
          42.29623299286731
        ]
      }
    },
    {
      "type": "Feature",
      "properties": {
        "norad_id": 35645,
        "name": "COSMOS 2251 DEB",
        "group": "cosmos-2251-debris",
        "lat": 62.70882791574545,
        "lon": -119.90606317479298,
        "alt_km": 771.3882302845368,
        "timestamp": "2025-12-09T09:46:48.042131+00:00",
        "meta_object_name": "COSMOS 2251 DEB",
        "meta_object_id": "1993-036ANL",
        "meta_epoch": "2025-12-08T01:41:49.099488",
        "meta_mean_motion": 14.45466188,
        "meta_eccentricity": 0.00693731,
        "meta_inclination": 73.964,
        "meta_ra_of_asc_node": 96.4758,
        "meta_arg_of_pericenter": 254.7329,
        "meta_mean_anomaly": 104.6152,
        "meta_ephemeris_type": 0,
        "meta_classification_type": "U",
        "meta_norad_cat_id": 35645,
        "meta_element_set_no": 999,
        "meta_rev_at_epoch": 86704,
        "meta_bstar": 0.0029502414,
        "meta_mean_motion_dot": 0.00010695,
        "meta_mean_motion_ddot": 0,
        "tle_line1": "1 35645U 93036ANL 25342.07070717  .00010695  00000+0  29502-2 0  9999",
        "tle_line2": "2 35645  73.9640  96.4758 0069373 254.7329 104.6152 14.45466188867044"
      },
      "geometry": {
        "type": "Point",
        "coordinates": [
          -119.90606317479298,
          62.70882791574545
        ]
      }
    }
  ]
}